[{"OBJECT_NAME":"STARLINK-4380","OBJECT_ID":"2022-105C","EPOCH":"2026-03-09T15:23:26.573856","MEAN_MOTION":15.01236314,"ECCENTRICITY":8.32e-5,"INCLINATION":97.6031,"RA_OF_ASC_NODE":310.1536,"ARG_OF_PERICENTER":108.7085,"MEAN_ANOMALY":251.423,"EPHEMERIS_TYPE":0,"CLASSIFICATION_TYPE":"U","NORAD_CAT_ID":53650,"ELEMENT_SET_NO":999,"REV_AT_EPOCH":19322,"BSTAR":0.00076256,"MEAN_MOTION_DOT":9.743e-5,"MEAN_MOTION_DDOT":0},{"OBJECT_NAME":"CZ-6A DEB","OBJECT_ID":"2022-151QP","EPOCH":"2026-03-09T02:57:40.392288","MEAN_MOTION":14.90154105,"ECCENTRICITY":0.00458103,"INCLINATION":98.6088,"RA_OF_ASC_NODE":136.2447,"ARG_OF_PERICENTER":198.9434,"MEAN_ANOMALY":161.0079,"EPHEMERIS_TYPE":0,"CLASSIFICATION_TYPE":"U","NORAD_CAT_ID":54902,"ELEMENT_SET_NO":999,"REV_AT_EPOCH":17583,"BSTAR":0.0048981783,"MEAN_MOTION_DOT":0.00048606,"MEAN_MOTION_DDOT":0}]
